[
    {
        "CCSDS_OMM_VERS": "3.0",
        "COMMENT": "GENERATED VIA SPACE-TRACK.ORG API",
        "CREATION_DATE": "2025-05-02T17:35:09",
        "ORIGINATOR": "18 SPCS",
        "OBJECT_NAME": "BEIDOU 3M22",
        "OBJECT_ID": "2019-078B",
        "CENTER_NAME": "EARTH",
        "REF_FRAME": "TEME",
        "TIME_SYSTEM": "UTC",
        "MEAN_ELEMENT_THEORY": "SGP4",
        "EPOCH": "2025-05-01T21:50:31.634304",
        "MEAN_MOTION": "1.86227703",
        "ECCENTRICITY": "0.00048630",
        "INCLINATION": "54.2791",
        "RA_OF_ASC_NODE": "314.2271",
        "ARG_OF_PERICENTER": "35.1096",
        "MEAN_ANOMALY": "324.9217",
        "EPHEMERIS_TYPE": "0",
        "CLASSIFICATION_TYPE": "U",
        "NORAD_CAT_ID": "44794",
        "ELEMENT_SET_NO": "999",
        "REV_AT_EPOCH": "3699",
        "BSTAR": "0.00000000000000",
        "MEAN_MOTION_DOT": "-0.00000067",
        "MEAN_MOTION_DDOT": "0.0000000000000",
        "SEMIMAJOR_AXIS": "27906.518",
        "PERIOD": "773.247",
        "APOAPSIS": "21541.954",
        "PERIAPSIS": "21514.812",
        "OBJECT_TYPE": "PAYLOAD",
        "RCS_SIZE": "LARGE",
        "COUNTRY_CODE": "PRC",
        "LAUNCH_DATE": "2019-11-23",
        "SITE": "XSC",
        "DECAY_DATE": null,
        "FILE": "4716995",
        "GP_ID": "286680932",
        "TLE_LINE0": "0 BEIDOU 3M22",
        "TLE_LINE1": "1 44794U 19078B   25121.91008836 -.00000067  00000-0  00000-0 0  9993",
        "TLE_LINE2": "2 44794  54.2791 314.2271 0004863  35.1096 324.9217  1.86227703 36994"
    }
]